[
    {
        "Altitude(m)": 622200.1459643209,
        "Argument of Periapsis(deg)": 0.0,
        "Eccentricity": 0.0,
        "Inclination(deg)": 60.0,
        "Latitude(deg)": -52.16264521437935,
        "Longitude(deg)": -52.63917192167643,
        "Mean Anomaly(deg)": -65.4545,
        "RAAN(deg)": 95.0,
        "Satellite Name": "Test1 436",
        "Satellite Number": 436,
        "Semi-Major Axis(m)": 6980739.136638005,
        "Time(s)": 0
    },
    {
        "Altitude(m)": 622058.313544785,
        "Argument of Periapsis(deg)": 0.00010418945913296404,
        "Eccentricity": 0.0,
        "Inclination(deg)": 60.0,
        "Latitude(deg)": -51.799394075766145,
        "Longitude(deg)": -51.87111321134294,
        "Mean Anomaly(deg)": -64.8343938545381,
        "RAAN(deg)": 94.99957995086027,
        "Satellite Name": "Test1 436",
        "Satellite Number": 436,
        "Semi-Major Axis(m)": 6980739.136638005,
        "Time(s)": 10
    }
]